CCSDS_OMM_VERS = 2.0
CREATION_DATE  = 
ORIGINATOR     = 

OBJECT_NAME    = SL-14 R/B
OBJECT_ID      = 1991-042B
CENTER_NAME    = EARTH
REF_FRAME      = TEME
TIME_SYSTEM    = UTC
MEAN_ELEMENT_THEORY = SGP/SGP4

EPOCH          = 2026-02-06T00:29:14.737344
MEAN_MOTION    = 14.81799343
ECCENTRICITY   = .00167743
INCLINATION    = 82.4900
RA_OF_ASC_NODE = 249.8869
ARG_OF_PERICENTER = 350.3519
MEAN_ANOMALY   = 9.7370

EPHEMERIS_TYPE = 0
CLASSIFICATION_TYPE = U
NORAD_CAT_ID   = 21423
ELEMENT_SET_NO = 999
REV_AT_EPOCH   = 84838
BSTAR          = .59866926E-4
MEAN_MOTION_DOT = .497E-5
MEAN_MOTION_DDOT = 0

CCSDS_OMM_VERS = 2.0
CREATION_DATE  = 
ORIGINATOR     = 

OBJECT_NAME    = ERS-1
OBJECT_ID      = 1991-050A
CENTER_NAME    = EARTH
REF_FRAME      = TEME
TIME_SYSTEM    = UTC
MEAN_ELEMENT_THEORY = SGP/SGP4

EPOCH          = 2026-02-06T00:00:06.617376
MEAN_MOTION    = 14.39423069
ECCENTRICITY   = .00309771
INCLINATION    = 98.7896
RA_OF_ASC_NODE = 54.4378
ARG_OF_PERICENTER = 297.2004
MEAN_ANOMALY   = 62.6026

EPHEMERIS_TYPE = 0
CLASSIFICATION_TYPE = U
NORAD_CAT_ID   = 21574
ELEMENT_SET_NO = 999
REV_AT_EPOCH   = 81117
BSTAR          = .16398499E-3
MEAN_MOTION_DOT = .466E-5
MEAN_MOTION_DDOT = 0

CCSDS_OMM_VERS = 2.0
CREATION_DATE  = 
ORIGINATOR     = 

OBJECT_NAME    = ARIANE 40 R/B
OBJECT_ID      = 1991-050F
CENTER_NAME    = EARTH
REF_FRAME      = TEME
TIME_SYSTEM    = UTC
MEAN_ELEMENT_THEORY = SGP/SGP4

EPOCH          = 2026-02-06T03:01:58.159776
MEAN_MOTION    = 14.42869890
ECCENTRICITY   = .00036627
INCLINATION    = 98.2078
RA_OF_ASC_NODE = 90.5371
ARG_OF_PERICENTER = 151.6461
MEAN_ANOMALY   = 208.4929

EPHEMERIS_TYPE = 0
CLASSIFICATION_TYPE = U
NORAD_CAT_ID   = 21610
ELEMENT_SET_NO = 999
REV_AT_EPOCH   = 81444
BSTAR          = .13824945E-3
MEAN_MOTION_DOT = .42E-5
MEAN_MOTION_DDOT = 0

CCSDS_OMM_VERS = 2.0
CREATION_DATE  = 
ORIGINATOR     = 

OBJECT_NAME    = INTERCOSMOS 25
OBJECT_ID      = 1991-086A
CENTER_NAME    = EARTH
REF_FRAME      = TEME
TIME_SYSTEM    = UTC
MEAN_ELEMENT_THEORY = SGP/SGP4

EPOCH          = 2026-02-06T04:49:55.137504
MEAN_MOTION    = 12.11913022
ECCENTRICITY   = .14866523
INCLINATION    = 82.6087
RA_OF_ASC_NODE = 329.0361
ARG_OF_PERICENTER = 184.7696
MEAN_ANOMALY   = 173.7737

EPHEMERIS_TYPE = 0
CLASSIFICATION_TYPE = U
NORAD_CAT_ID   = 21819
ELEMENT_SET_NO = 999
REV_AT_EPOCH   = 49287
BSTAR          = .20776485E-3
MEAN_MOTION_DOT = .1072E-4
MEAN_MOTION_DDOT = 0

CCSDS_OMM_VERS = 2.0
CREATION_DATE  = 
ORIGINATOR     = 

OBJECT_NAME    = SL-8 R/B
OBJECT_ID      = 1992-008B
CENTER_NAME    = EARTH
REF_FRAME      = TEME
TIME_SYSTEM    = UTC
MEAN_ELEMENT_THEORY = SGP/SGP4

EPOCH          = 2026-02-06T04:24:26.351712
MEAN_MOTION    = 13.75969506
ECCENTRICITY   = .00337084
INCLINATION    = 82.9268
RA_OF_ASC_NODE = 291.2160
ARG_OF_PERICENTER = 221.2607
MEAN_ANOMALY   = 303.9106

EPHEMERIS_TYPE = 0
CLASSIFICATION_TYPE = U
NORAD_CAT_ID   = 21876
ELEMENT_SET_NO = 999
REV_AT_EPOCH   = 70508
BSTAR          = .57698883E-4
MEAN_MOTION_DOT = .71E-6
MEAN_MOTION_DDOT = 0

CCSDS_OMM_VERS = 2.0
CREATION_DATE  = 
ORIGINATOR     = 

OBJECT_NAME    = SL-8 R/B
OBJECT_ID      = 1992-020B
CENTER_NAME    = EARTH
REF_FRAME      = TEME
TIME_SYSTEM    = UTC
MEAN_ELEMENT_THEORY = SGP/SGP4

EPOCH          = 2026-02-05T23:50:52.853856
MEAN_MOTION    = 13.75544599
ECCENTRICITY   = .00294719
INCLINATION    = 82.9325
RA_OF_ASC_NODE = 177.2878
ARG_OF_PERICENTER = 28.6953
MEAN_ANOMALY   = 110.6269

EPHEMERIS_TYPE = 0
CLASSIFICATION_TYPE = U
NORAD_CAT_ID   = 21938
ELEMENT_SET_NO = 999
REV_AT_EPOCH   = 69677
BSTAR          = .12652933E-3
MEAN_MOTION_DOT = .137E-5
MEAN_MOTION_DDOT = 0

CCSDS_OMM_VERS = 2.0
CREATION_DATE  = 
ORIGINATOR     = 

OBJECT_NAME    = USA 81
OBJECT_ID      = 1992-023A
CENTER_NAME    = EARTH
REF_FRAME      = TEME
TIME_SYSTEM    = UTC
MEAN_ELEMENT_THEORY = SGP/SGP4

EPOCH          = 2026-02-06T07:01:17.074272
MEAN_MOTION    = 14.32356123
ECCENTRICITY   = .00025695
INCLINATION    = 85.0120
RA_OF_ASC_NODE = 149.5445
ARG_OF_PERICENTER = 105.5448
MEAN_ANOMALY   = 254.6028

EPHEMERIS_TYPE = 0
CLASSIFICATION_TYPE = U
NORAD_CAT_ID   = 21949
ELEMENT_SET_NO = 999
REV_AT_EPOCH   = 9029
BSTAR          = .10237406E-3
MEAN_MOTION_DOT = .296E-5
MEAN_MOTION_DDOT = 0

CCSDS_OMM_VERS = 2.0
CREATION_DATE  = 
ORIGINATOR     = 

OBJECT_NAME    = COSMOS 2219
OBJECT_ID      = 1992-076A
CENTER_NAME    = EARTH
REF_FRAME      = TEME
TIME_SYSTEM    = UTC
MEAN_ELEMENT_THEORY = SGP/SGP4

EPOCH          = 2026-02-06T02:42:52.040448
MEAN_MOTION    = 14.14077010
ECCENTRICITY   = .00204474
INCLINATION    = 71.0586
RA_OF_ASC_NODE = 84.0822
ARG_OF_PERICENTER = 250.6467
MEAN_ANOMALY   = 109.2445

EPHEMERIS_TYPE = 0
CLASSIFICATION_TYPE = U
NORAD_CAT_ID   = 22219
ELEMENT_SET_NO = 999
REV_AT_EPOCH   = 71391
BSTAR          = -.54746208E-4
MEAN_MOTION_DOT = -.152E-5
MEAN_MOTION_DDOT = 0

CCSDS_OMM_VERS = 2.0
CREATION_DATE  = 
ORIGINATOR     = 

OBJECT_NAME    = SL-16 R/B
OBJECT_ID      = 1992-076B
CENTER_NAME    = EARTH
REF_FRAME      = TEME
TIME_SYSTEM    = UTC
MEAN_ELEMENT_THEORY = SGP/SGP4

EPOCH          = 2026-02-06T02:07:43.406976
MEAN_MOTION    = 14.16854801
ECCENTRICITY   = .00116757
INCLINATION    = 70.9981
RA_OF_ASC_NODE = 254.9417
ARG_OF_PERICENTER = 152.3831
MEAN_ANOMALY   = 15.0982

EPHEMERIS_TYPE = 0
CLASSIFICATION_TYPE = U
NORAD_CAT_ID   = 22220
ELEMENT_SET_NO = 999
REV_AT_EPOCH   = 71735
BSTAR          = .13512862E-3
MEAN_MOTION_DOT = .223E-5
MEAN_MOTION_DDOT = 0

CCSDS_OMM_VERS = 2.0
CREATION_DATE  = 
ORIGINATOR     = 

OBJECT_NAME    = COSMOS 2221
OBJECT_ID      = 1992-080A
CENTER_NAME    = EARTH
REF_FRAME      = TEME
TIME_SYSTEM    = UTC
MEAN_ELEMENT_THEORY = SGP/SGP4

EPOCH          = 2026-02-06T04:53:00.538944
MEAN_MOTION    = 14.96073088
ECCENTRICITY   = .00130624
INCLINATION    = 82.5060
RA_OF_ASC_NODE = 309.2348
ARG_OF_PERICENTER = 303.2076
MEAN_ANOMALY   = 56.7893

EPHEMERIS_TYPE = 0
CLASSIFICATION_TYPE = U
NORAD_CAT_ID   = 22236
ELEMENT_SET_NO = 999
REV_AT_EPOCH   = 77608
BSTAR          = .25202075E-3
MEAN_MOTION_DOT = .286E-4
MEAN_MOTION_DDOT = 0

CCSDS_OMM_VERS = 2.0
CREATION_DATE  = 
ORIGINATOR     = 

OBJECT_NAME    = SL-16 R/B
OBJECT_ID      = 1992-093B
CENTER_NAME    = EARTH
REF_FRAME      = TEME
TIME_SYSTEM    = UTC
MEAN_ELEMENT_THEORY = SGP/SGP4

EPOCH          = 2026-02-06T01:54:05.574816
MEAN_MOTION    = 14.15441420
ECCENTRICITY   = .0005085
INCLINATION    = 71.0202
RA_OF_ASC_NODE = 70.6273
ARG_OF_PERICENTER = 326.6801
MEAN_ANOMALY   = 33.4001

EPHEMERIS_TYPE = 0
CLASSIFICATION_TYPE = U
NORAD_CAT_ID   = 22285
ELEMENT_SET_NO = 999
REV_AT_EPOCH   = 70868
BSTAR          = -.68523511E-4
MEAN_MOTION_DOT = -.181E-5
MEAN_MOTION_DDOT = 0

CCSDS_OMM_VERS = 2.0
CREATION_DATE  = 
ORIGINATOR     = 

OBJECT_NAME    = COSMOS 2228
OBJECT_ID      = 1992-094A
CENTER_NAME    = EARTH
REF_FRAME      = TEME
TIME_SYSTEM    = UTC
MEAN_ELEMENT_THEORY = SGP/SGP4

EPOCH          = 2026-02-06T05:46:11.547552
MEAN_MOTION    = 14.97045860
ECCENTRICITY   = .00192715
INCLINATION    = 82.5157
RA_OF_ASC_NODE = 267.4258
ARG_OF_PERICENTER = 50.6106
MEAN_ANOMALY   = 309.6820

EPHEMERIS_TYPE = 0
CLASSIFICATION_TYPE = U
NORAD_CAT_ID   = 22286
ELEMENT_SET_NO = 999
REV_AT_EPOCH   = 77135
BSTAR          = .26378954E-3
MEAN_MOTION_DOT = .3075E-4
MEAN_MOTION_DDOT = 0

